JY1SAT (JO-97)          
1 43803U 18099AX  26068.68634132  .00017774  00000+0  60804-3 0  9996
2 43803  97.4249 131.3625 0004723 256.6795 103.3919 15.30302628398390
STARLINK-34158          
1 63996U 25101C   26068.14442162  .00031986  00000+0  11660-2 0  9990
2 63996  43.0035   0.9277 0001360 284.6533  75.4168 15.27603972 46975
